     2.10           G: GLONASS NAV DATA                     RINEX VERSION / TYPE
teqc  2011Oct11     IGN-E (SPG)         20150127 03:01:10UTCPGM / RUN BY / DATE
Linux 2.4.21-27.ELsmp|Opteron|gcc -static|Linux x86_64|=+   COMMENT
                                                            END OF HEADER
 1 15  1 26 23 15  0.0-1.567834988236D-04 0.000000000000D+00 8.280000000000D+04
   -6.560277832031D+03 3.063049316406D-01 9.313225746155D-10 0.000000000000D+00
   -1.624923876953D+04-2.520866394043D+00-2.793967723846D-09 1.000000000000D+00
    1.853802343750D+04-2.098759651184D+00-1.862645149231D-09 0.000000000000D+00
 2 15  1 26 15 45  0.0 1.154625788331D-04 9.094947017729D-13 5.580000000000D+04
    1.819910546875D+04-8.796539306641D-01 2.793967723846D-09 0.000000000000D+00
    1.583628076172D+04-7.260026931763D-01 0.000000000000D+00-4.000000000000D+00
   -8.213644042969D+03-3.340028762817D+00 1.862645149231D-09 0.000000000000D+00
 3 15  1 27  0 45  0.0 3.391690552235D-05 9.094947017729D-13 1.800000000000D+03
   -9.931339843750D+03-7.092847824097D-01 9.313225746155D-10 0.000000000000D+00
    5.430791503906D+03-3.043929100037D+00-9.313225746155D-10 5.000000000000D+00
    2.288990283203D+04 4.128932952881D-01-2.793967723846D-09 0.000000000000D+00
 4 15  1 27  0 45  0.0 1.070052385330D-04 9.094947017729D-13 2.100000000000D+03
   -1.809886718750D+03-3.300952911377D-01 9.313225746155D-10 0.000000000000D+00
    2.118048632812D+04-1.906222343445D+00 9.313225746155D-10 6.000000000000D+00
    1.411090576172D+04 2.819542884827D+00-1.862645149231D-09 0.000000000000D+00
 5 15  1 26 20 15  0.0 1.104548573494D-06 9.094947017729D-13 7.200000000000D+04
    2.114627050781D+04-1.328785896301D+00 9.313225746155D-10 0.000000000000D+00
   -8.610531250000D+03 8.206911087036D-01-1.862645149231D-09 1.000000000000D+00
   -1.139790283203D+04-3.088673591614D+00 2.793967723846D-09 0.000000000000D+00
 6 15  1 26 21 45  0.0 6.149429827929D-05 0.000000000000D+00 7.740000000000D+04
    1.624761425781D+04-9.393110275269D-01 0.000000000000D+00 0.000000000000D+00
   -1.570525781250D+04 1.320286750793D+00-1.862645149231D-09-4.000000000000D+00
   -1.182564111328D+04-3.051755905151D+00 2.793967723846D-09 0.000000000000D+00
 7 15  1 26 22 15  0.0-1.135319471359D-04-9.094947017729D-13 7.920000000000D+04
    1.093841113281D+04-2.103261947632D-01 9.313225746155D-10 0.000000000000D+00
   -2.300223046875D+04 8.616733551025D-02-3.725290298462D-09 5.000000000000D+00
   -1.177598632812D+03-3.564669609070D+00 9.313225746155D-10 0.000000000000D+00
 8 15  1 26 22 45  0.0-2.619531005621D-05 0.000000000000D+00 8.100000000000D+04
    2.103656738281D+03 2.440872192383D-01 9.313225746155D-10 0.000000000000D+00
   -2.346262744141D+04-1.327149391174D+00-3.725290298462D-09 6.000000000000D+00
    9.854751464844D+03-3.224027633667D+00-0.000000000000D+00 0.000000000000D+00
 9 15  1 27  0 45  0.0-5.671754479408D-06 9.094947017729D-13 1.800000000000D+03
    2.382375097656D+04-3.446578979492D-01 0.000000000000D+00 0.000000000000D+00
    8.749182128906D+03-3.128986358643D-01 1.862645149231D-09-2.000000000000D+00
   -3.098134765625D+03-3.543992996216D+00 0.000000000000D+00 0.000000000000D+00
10 15  1 27  0 45  0.0 6.545335054398D-06 0.000000000000D+00 1.800000000000D+03
    2.155137988281D+04 1.841636657715D+00 0.000000000000D+00 0.000000000000D+00
    2.222651367188D+02 3.618917465210D-01 0.000000000000D+00-7.000000000000D+00
    1.357289062500D+04-2.933006286621D+00-9.313225746155D-10 0.000000000000D+00
11 15  1 27  0 45  0.0-1.545995473862D-07 0.000000000000D+00 1.800000000000D+03
    6.986783203125D+03 3.018242835999D+00 0.000000000000D+00 0.000000000000D+00
   -8.831614257812D+03 8.547372817993D-01-1.862645149231D-09 0.000000000000D+00
    2.289828710938D+04-5.831661224365D-01-1.862645149231D-09 0.000000000000D+00
12 15  1 26 15 45  0.0-7.617287337780D-06 0.000000000000D+00 5.580000000000D+04
   -8.910208984375D+03-2.248721122742D+00-0.000000000000D+00 0.000000000000D+00
    1.458277783203D+04 1.296943664551D+00 0.000000000000D+00-1.000000000000D+00
    1.884966650391D+04-2.077567100525D+00-9.313225746155D-10 0.000000000000D+00
13 15  1 26 17 45  0.0-4.694601520896D-04-9.094947017729D-13 6.300000000000D+04
   -5.453605468750D+03-8.478498458862D-01-9.313225746155D-10 0.000000000000D+00
    2.075191308594D+04 1.700041770935D+00 0.000000000000D+00-2.000000000000D+00
    1.378286425781D+04-2.891884803772D+00-9.313225746155D-10 0.000000000000D+00
14 15  1 26 19 45  0.0 1.240158453584D-04 3.637978807092D-12 7.020000000000D+04
    2.267537109375D+03 1.885185241699D-01-9.313225746155D-10 0.000000000000D+00
    2.436074560547D+04 9.830932617188D-01 9.313225746155D-10-7.000000000000D+00
    7.082897460938D+03-3.439881324768D+00-0.000000000000D+00 0.000000000000D+00
15 15  1 26 21 45  0.0 3.779027611017D-05 9.094947017729D-13 7.740000000000D+04
    1.133762207031D+04 1.193075180054D-01-9.313225746155D-10 0.000000000000D+00
    2.286147070312D+04-3.059387207031D-01 1.862645149231D-09 0.000000000000D+00
   -1.555139648438D+03-3.590262413025D+00 0.000000000000D+00 0.000000000000D+00
16 15  1 27  0 15  0.0-2.382043749094D-05 9.094947017729D-13 0.000000000000D+00
    1.637701025391D+04-1.601763725281D+00-0.000000000000D+00 0.000000000000D+00
    1.424966601562D+04-8.932390213013D-01 2.793967723846D-09-1.000000000000D+00
   -1.335818847656D+04-2.930010795593D+00 9.313225746155D-10 0.000000000000D+00
17 15  1 26 21 45  0.0 1.466721296310D-04 9.094947017729D-13 7.740000000000D+04
   -8.381769531250D+03-3.005081176758D+00 0.000000000000D+00 0.000000000000D+00
    9.897381347656D+03-6.087017059326D-02 9.313225746155D-10 4.000000000000D+00
    2.198699609375D+04-1.122839927673D+00-2.793967723846D-09 0.000000000000D+00
18 15  1 26 23 45  0.0 3.531854599714D-05 1.818989403546D-12 8.460000000000D+04
   -9.959387695312D+03-2.142356872559D+00 9.313225746155D-10 0.000000000000D+00
    1.490320263672D+04 1.266593933105D+00 9.313225746155D-10-3.000000000000D+00
    1.819485937500D+04-2.205938339233D+00-2.793967723846D-09 0.000000000000D+00
19 15  1 27  0 45  0.0-1.167319715023D-04-9.094947017729D-13 1.800000000000D+03
    1.079916992188D+02-2.153717994690D+00 9.313225746155D-10 0.000000000000D+00
    1.345109960938D+04 2.044567108154D+00 0.000000000000D+00 3.000000000000D+00
    2.167561572266D+04-1.258599281311D+00-2.793967723846D-09 0.000000000000D+00
20 15  1 27  0 45  0.0-1.551546156406D-04-1.818989403546D-12 1.800000000000D+03
    1.434098242188D+04-2.196766853333D+00 0.000000000000D+00 0.000000000000D+00
    2.001958007812D+02 1.877538681030D+00-0.000000000000D+00 2.000000000000D+00
    2.108933837891D+04 1.481250762939D+00-1.862645149231D-09 0.000000000000D+00
21 15  1 27  0 45  0.0-3.956258296967D-06 1.818989403546D-12 1.800000000000D+03
    2.008275585938D+04-1.077057838440D+00-0.000000000000D+00 0.000000000000D+00
   -1.248206738281D+04 7.723360061646D-01-9.313225746155D-10 4.000000000000D+00
    9.611492675781D+03 3.252046585083D+00-0.000000000000D+00 1.000000000000D+01
22 15  1 27  0 45  0.0 1.510884612799D-04 0.000000000000D+00 2.730000000000D+03
    1.507444189453D+04 6.641912460327D-01-9.313225746155D-10 0.000000000000D+00
   -1.896535742188D+04-8.530006408691D-01-9.313225746155D-10-3.000000000000D+00
   -7.757526855469D+03 3.385478019714D+00 1.862645149231D-09 0.000000000000D+00
23 15  1 26 18 45  0.0-7.060226052999D-04-3.637978807092D-12 6.660000000000D+04
   -1.127836279297D+04-2.132907867432D+00-0.000000000000D+00 0.000000000000D+00
    3.323321289062D+03-2.251730918884D+00 9.313225746155D-10 3.000000000000D+00
    2.263310156250D+04-7.324438095093D-01-2.793967723846D-09 0.000000000000D+00
24 15  1 26 20 15  0.0-1.204796135426D-04-0.000000000000D+00 7.200000000000D+04
   -1.111753369141D+04-2.776360511780D+00-0.000000000000D+00 0.000000000000D+00
    6.199013671875D+03-1.216396331787D+00 9.313225746155D-10 2.000000000000D+00
    2.208688427734D+04-1.054822921753D+00-2.793967723846D-09 0.000000000000D+00
19 15  1 27  1 15  0.0-1.167338341475D-04-9.094947017729D-13 3.600000000000D+03
   -3.248799316406D+03-1.558297157288D+00 9.313225746155D-10 0.000000000000D+00
    1.715082177734D+04 2.019291877747D+00 0.000000000000D+00 3.000000000000D+00
    1.860174951172D+04-2.134667396545D+00-2.793967723846D-09 0.000000000000D+00
 9 15  1 27  1 15  0.0-5.668960511684D-06 9.094947017729D-13 3.600000000000D+03
    2.241348974609D+04-1.217743873596D+00 0.000000000000D+00 0.000000000000D+00
    8.080276367188D+03-3.882808685303D-01 1.862645149231D-09-2.000000000000D+00
   -9.276515136719D+03-3.276605606079D+00 9.313225746155D-10 0.000000000000D+00
 4 15  1 27  1 15  0.0 1.070080325007D-04 9.094947017729D-13 3.600000000000D+03
   -2.836001464844D+03-8.261756896973D-01 9.313225746155D-10 0.000000000000D+00
    1.726074560547D+04-2.405240058899D+00 0.000000000000D+00 6.000000000000D+00
    1.857549169922D+04 2.108942031860D+00-2.793967723846D-09 0.000000000000D+00
10 15  1 27  1 15  0.0 6.545335054398D-06 0.000000000000D+00 3.600000000000D+03
    2.422915917969D+04 1.100734710693D+00 0.000000000000D+00 0.000000000000D+00
    4.816655273438D+02-4.261589050293D-02 9.313225746155D-10-7.000000000000D+00
    7.834878906250D+03-3.400987625122D+00-0.000000000000D+00 0.000000000000D+00
11 15  1 27  1 15  0.0-1.527369022369D-07 9.094947017729D-13 3.600000000000D+03
    1.231649755859D+04 2.851863861084D+00 0.000000000000D+00 0.000000000000D+00
   -7.745562988281D+03 3.531169891357D-01-9.313225746155D-10 0.000000000000D+00
    2.097848779297D+04-1.535897254944D+00-9.313225746155D-10 0.000000000000D+00
20 15  1 27  1 15  0.0-1.551583409309D-04-1.818989403546D-12 3.600000000000D+03
    1.047784375000D+04-2.052109718323D+00 9.313225746155D-10 0.000000000000D+00
    4.049922363281D+03 2.371966362000D+00-0.000000000000D+00 2.000000000000D+00
    2.290587939453D+04 5.241813659668D-01-1.862645149231D-09 0.000000000000D+00
